{"type": "FeatureCollection", "features": [{"type": "Feature", "properties": {"day": "0928", "label": "阿姆斯特丹史基浦 → 安特卫普", "mode": "drive", "id": "ams_antwerp", "distance_km": 164.4, "duration_min": 129}, "geometry": {"type": "LineString", "coordinates": [[4.769944, 52.309548], [4.765071, 52.310258], [4.758832, 52.311576], [4.757536, 52.311334], [4.757432, 52.3105], [4.753362, 52.308951], [4.744665, 52.308758], [4.744635, 52.307365], [4.745557, 52.305857], [4.743832, 52.302471], [4.73754, 52.29588], [4.715782, 52.280748], [4.668793, 52.247945], [4.643689, 52.230132], [4.63078, 52.221005], [4.626475, 52.214713], [4.617333, 52.203182], [4.606241, 52.191275], [4.594452, 52.18243], [4.571918, 52.173438], [4.562762, 52.16801], [4.558063, 52.165083], [4.556795, 52.164473], [4.556459, 52.164173], [4.556151, 52.162829], [4.545113, 52.156587], [4.528603, 52.1492], [4.518861, 52.146339], [4.510749, 52.142108], [4.505418, 52.137362], [4.490156, 52.129704], [4.472094, 52.119824], [4.46361, 52.113297], [4.439017, 52.097872], [4.414312, 52.084974], [4.406816, 52.079354], [4.40243, 52.076665], [4.396447, 52.07425], [4.388251, 52.07106], [4.379973, 52.066315], [4.367528, 52.055622], [4.361346, 52.051102], [4.355814, 52.047583], [4.351311, 52.046858], [4.34827, 52.045588], [4.347384, 52.043369], [4.3487, 52.041578], [4.353128, 52.033985], [4.362045, 52.024858], [4.374603, 52.014081], [4.385716, 52.003765], [4.393991, 51.98453], [4.40337, 51.966428], [4.412743, 51.955559], [4.417333, 51.953815], [4.42554, 51.954154], [4.442489, 51.960839], [4.449971, 51.965462], [4.455904, 51.968323], [4.46175, 51.969699], [4.477892, 51.971983], [4.48531, 51.972788], [4.492899, 51.972544], [4.499807, 51.971058], [4.50371, 51.969522], [4.523954, 51.959024], [4.52763, 51.954833], [4.531191, 51.947326], [4.533577, 51.941469], [4.538434, 51.929143], [4.536818, 51.923475], [4.534421, 51.918564], [4.534939, 51.915479], [4.543971, 51.902142], [4.54905, 51.897639], [4.559345, 51.893148], [4.56501, 51.88234], [4.568734, 51.876668], [4.574207, 51.871895], [4.590364, 51.86228], [4.600486, 51.853615], [4.619614, 51.833923], [4.626343, 51.823267], [4.631089, 51.816008], [4.636938, 51.813106], [4.643215, 51.811636], [4.648906, 51.808409], [4.650111, 51.804071], [4.64874, 51.79299], [4.650079, 51.77809], [4.646162, 51.762282], [4.635947, 51.740797], [4.631675, 51.728791], [4.633472, 51.722423], [4.646661, 51.703688], [4.654249, 51.691811], [4.659405, 51.685355], [4.660821, 51.683388], [4.669664, 51.675471], [4.690326, 51.647876], [4.697711, 51.63757], [4.722884, 51.598479], [4.723705, 51.593996], [4.72375, 51.58415], [4.730803, 51.566567], [4.732098, 51.563399], [4.734402, 51.560532], [4.739048, 51.550642], [4.740434, 51.537266], [4.744929, 51.523594], [4.743578, 51.505153], [4.735158, 51.485919], [4.727107, 51.469068], [4.71852, 51.447142], [4.703807, 51.416071], [4.698054, 51.408691], [4.691273, 51.402766], [4.670262, 51.387337], [4.63368, 51.356862], [4.602792, 51.331862], [4.564765, 51.312565], [4.540231, 51.3016], [4.512494, 51.284621], [4.498694, 51.271721], [4.482859, 51.267023], [4.465542, 51.268499], [4.454816, 51.267929], [4.444478, 51.26676], [4.438449, 51.265304], [4.434431, 51.265137], [4.430719, 51.264305], [4.425728, 51.264218], [4.414031, 51.26562], [4.408888, 51.269238], [4.406217, 51.268977], [4.405072, 51.266801], [4.40586, 51.265744], [4.412068, 51.264622], [4.417958, 51.262469], [4.417279, 51.260473], [4.416258, 51.260394], [4.416256, 51.258002], [4.416183, 51.255164], [4.415957, 51.253235], [4.414719, 51.251692], [4.414773, 51.250874], [4.41589, 51.249334], [4.41603, 51.248397], [4.415623, 51.2476], [4.414447, 51.246656], [4.413861, 51.244952], [4.412398, 51.242214], [4.409809, 51.240288], [4.408372, 51.241353], [4.406121, 51.241521], [4.404739, 51.240588], [4.402887, 51.239756], [4.403512, 51.237916], [4.403261, 51.236277], [4.403338, 51.235012], [4.402963, 51.232327], [4.402532, 51.230486], [4.402037, 51.228309], [4.400951, 51.226887], [4.399982, 51.225621], [4.399291, 51.223182], [4.401143, 51.222446], [4.399478, 51.2216]]}}, {"type": "Feature", "properties": {"day": "0928", "label": "安特卫普 → 布鲁塞尔大广场", "mode": "drive", "id": "antwerp_brussels", "distance_km": 47.9, "duration_min": 52}, "geometry": {"type": "LineString", "coordinates": [[4.399478, 51.2216], [4.400358, 51.222605], [4.400531, 51.223114], [4.402179, 51.222731], [4.40312, 51.222127], [4.403914, 51.22232], [4.404987, 51.221868], [4.405077, 51.221444], [4.405226, 51.221173], [4.405291, 51.220069], [4.405241, 51.219582], [4.405032, 51.218702], [4.405016, 51.218458], [4.405306, 51.218271], [4.405366, 51.217707], [4.405416, 51.217244], [4.405457, 51.21658], [4.405133, 51.216333], [4.404813, 51.216182], [4.405041, 51.215354], [4.40512, 51.214959], [4.405026, 51.214593], [4.404876, 51.213282], [4.405054, 51.21293], [4.406673, 51.212571], [4.407274, 51.212345], [4.407453, 51.212236], [4.407421, 51.210986], [4.406384, 51.210234], [4.402801, 51.209084], [4.40226, 51.208916], [4.397998, 51.207524], [4.394656, 51.206428], [4.392688, 51.205807], [4.389002, 51.2046], [4.385039, 51.203201], [4.382405, 51.2015], [4.381218, 51.20012], [4.380911, 51.199071], [4.381286, 51.198071], [4.382446, 51.197237], [4.38502, 51.195782], [4.386223, 51.194747], [4.387487, 51.192885], [4.389674, 51.187353], [4.390604, 51.1833], [4.389876, 51.181008], [4.388586, 51.176735], [4.384082, 51.160273], [4.382315, 51.153531], [4.381913, 51.152085], [4.379232, 51.142439], [4.377989, 51.137963], [4.376714, 51.133252], [4.376089, 51.131008], [4.374338, 51.124486], [4.3737, 51.122128], [4.371643, 51.114727], [4.366913, 51.097506], [4.364795, 51.092564], [4.362874, 51.090056], [4.358467, 51.086431], [4.349852, 51.080128], [4.347456, 51.076475], [4.345057, 51.071513], [4.341265, 51.063656], [4.338853, 51.058705], [4.334127, 51.049311], [4.33077, 51.042661], [4.329168, 51.039488], [4.320859, 51.023021], [4.317205, 51.015627], [4.316573, 51.012654], [4.316291, 51.002702], [4.31614, 50.997276], [4.316022, 50.993007], [4.315646, 50.978892], [4.315025, 50.95501], [4.31548, 50.952788], [4.317082, 50.949922], [4.320682, 50.946578], [4.329107, 50.939645], [4.330732, 50.937602], [4.331529, 50.935003], [4.332632, 50.932284], [4.336797, 50.926751], [4.339212, 50.921993], [4.341674, 50.914687], [4.343983, 50.908316], [4.346784, 50.900647], [4.347539, 50.898845], [4.348563, 50.897672], [4.350713, 50.896029], [4.354174, 50.894195], [4.354912, 50.893876], [4.355579, 50.893644], [4.356549, 50.893462], [4.35716, 50.893236], [4.357617, 50.892964], [4.358154, 50.892365], [4.358426, 50.891579], [4.358409, 50.890805], [4.358232, 50.890412], [4.357763, 50.889799], [4.357129, 50.889269], [4.35553, 50.8882], [4.354827, 50.887522], [4.354448, 50.886778], [4.354216, 50.885537], [4.354212, 50.88401], [4.354422, 50.882813], [4.35486, 50.881323], [4.355248, 50.880596], [4.355868, 50.87968], [4.356413, 50.878915], [4.356505, 50.878677], [4.356418, 50.878445], [4.3562, 50.878257], [4.356166, 50.878124], [4.35889, 50.874307], [4.359344, 50.873442], [4.359973, 50.872663], [4.360262, 50.872032], [4.35955, 50.870734], [4.35684, 50.867368], [4.354884, 50.864952], [4.353936, 50.864349], [4.35292, 50.86359], [4.351898, 50.862293], [4.350908, 50.861109], [4.349099, 50.858758], [4.34874, 50.85816], [4.349121, 50.857789], [4.351114, 50.857307], [4.352262, 50.856889], [4.353337, 50.85665], [4.354676, 50.85627], [4.355523, 50.855986], [4.356757, 50.855646], [4.357939, 50.855316], [4.359551, 50.854855], [4.360194, 50.854678], [4.362649, 50.853918], [4.363051, 50.853536], [4.362618, 50.852677], [4.362001, 50.851568], [4.361812, 50.851357], [4.361776, 50.851264], [4.361191, 50.85048], [4.360917, 50.850355], [4.360223, 50.849803], [4.358329, 50.848598], [4.357352, 50.847858], [4.357453, 50.847551], [4.358149, 50.847097], [4.358688, 50.846485], [4.35866, 50.846151], [4.358212, 50.845837], [4.357451, 50.845316], [4.356571, 50.844832], [4.355929, 50.845365], [4.355071, 50.84531], [4.353294, 50.844705], [4.353045, 50.844754], [4.35272, 50.844729], [4.352331, 50.844712], [4.351335, 50.845231], [4.350688, 50.845631], [4.34974, 50.84599], [4.350009, 50.846318], [4.351405, 50.846377], [4.351457, 50.84632]]}}, {"type": "Feature", "properties": {"day": "0929", "label": "布鲁塞尔 → 迪南", "mode": "drive", "id": "brussels_dinant", "distance_km": 91.0, "duration_min": 71}, "geometry": {"type": "LineString", "coordinates": [[4.361685, 50.827371], [4.362411, 50.826663], [4.364289, 50.826447], [4.365672, 50.825409], [4.369217, 50.822048], [4.370306, 50.820719], [4.37081, 50.819339], [4.371628, 50.817862], [4.374763, 50.816669], [4.375706, 50.816256], [4.376388, 50.815451], [4.37714, 50.815519], [4.377817, 50.816299], [4.379262, 50.817945], [4.379513, 50.818244], [4.380738, 50.819182], [4.382455, 50.819745], [4.385124, 50.820505], [4.386669, 50.821074], [4.388454, 50.821868], [4.389506, 50.822386], [4.390508, 50.822888], [4.392293, 50.823764], [4.395869, 50.825581], [4.396939, 50.825065], [4.398227, 50.824165], [4.400999, 50.822271], [4.401597, 50.821868], [4.402721, 50.821039], [4.403328, 50.820026], [4.403311, 50.81908], [4.402943, 50.818444], [4.404178, 50.818166], [4.405417, 50.817382], [4.407528, 50.815695], [4.408474, 50.814973], [4.414074, 50.814789], [4.417973, 50.814477], [4.420979, 50.813343], [4.42541, 50.812444], [4.428325, 50.812329], [4.43321, 50.813219], [4.435329, 50.813173], [4.437349, 50.812611], [4.448345, 50.807888], [4.459544, 50.803233], [4.470359, 50.798676], [4.476053, 50.795991], [4.4797, 50.793653], [4.487622, 50.789948], [4.492173, 50.786921], [4.496716, 50.782141], [4.501873, 50.771777], [4.504366, 50.767102], [4.509032, 50.762222], [4.515899, 50.758046], [4.527362, 50.753907], [4.534975, 50.750674], [4.542342, 50.745173], [4.552089, 50.736484], [4.56, 50.72953], [4.565157, 50.726161], [4.576895, 50.721131], [4.596046, 50.713597], [4.605523, 50.70908], [4.610558, 50.705606], [4.61588, 50.699657], [4.619172, 50.695042], [4.622795, 50.688607], [4.627758, 50.678558], [4.631155, 50.67317], [4.635916, 50.66834], [4.642225, 50.664461], [4.650215, 50.661491], [4.670678, 50.656993], [4.711368, 50.648736], [4.725865, 50.644625], [4.735396, 50.640663], [4.74811, 50.633168], [4.762168, 50.622428], [4.791114, 50.599744], [4.801353, 50.590735], [4.812161, 50.579805], [4.827963, 50.566089], [4.841014, 50.557011], [4.863464, 50.543359], [4.870037, 50.539032], [4.874624, 50.534784], [4.877989, 50.529784], [4.880081, 50.523906], [4.882083, 50.516276], [4.884161, 50.508539], [4.886401, 50.503558], [4.889239, 50.499442], [4.897384, 50.491076], [4.904006, 50.483727], [4.914744, 50.468115], [4.921466, 50.458098], [4.928102, 50.449324], [4.935604, 50.440226], [4.938411, 50.434691], [4.94189, 50.424023], [4.945263, 50.41836], [4.952171, 50.413924], [4.961502, 50.409987], [4.968251, 50.404891], [4.975817, 50.395736], [4.982348, 50.386975], [4.990015, 50.377834], [4.999764, 50.366457], [5.004219, 50.359447], [5.015699, 50.33411], [5.016309, 50.329582], [5.015067, 50.327626], [5.012252, 50.324504], [5.009897, 50.323755], [5.009295, 50.323679], [5.00943, 50.323197], [5.009357, 50.322893], [5.007963, 50.322194], [5.006067, 50.322401], [5.003477, 50.321981], [5.002238, 50.322146], [5.001342, 50.321806], [4.997882, 50.31978], [4.995318, 50.318162], [4.993034, 50.317548], [4.989814, 50.317579], [4.980904, 50.315597], [4.977105, 50.315178], [4.976306, 50.314035], [4.974271, 50.312026], [4.973449, 50.311034], [4.971241, 50.31007], [4.97163, 50.308712], [4.970977, 50.306559], [4.971333, 50.304488], [4.970727, 50.302315], [4.962825, 50.297826], [4.960626, 50.294653], [4.957756, 50.291927], [4.955609, 50.289705], [4.953468, 50.287337], [4.95107, 50.285889], [4.948421, 50.284854], [4.94603, 50.28315], [4.94423, 50.281959], [4.942637, 50.280897], [4.936819, 50.279989], [4.931248, 50.279488], [4.925687, 50.277342], [4.921883, 50.276813], [4.919044, 50.276041], [4.918925, 50.274472], [4.917656, 50.274169], [4.917275, 50.273636], [4.916826, 50.272234], [4.916811, 50.271392], [4.915634, 50.270989], [4.913539, 50.270487], [4.911275, 50.270135], [4.908762, 50.269731], [4.906737, 50.269816], [4.906219, 50.26975], [4.906983, 50.269462], [4.907152, 50.269308], [4.906436, 50.268718], [4.905624, 50.268476], [4.906231, 50.267639], [4.906781, 50.266428], [4.90727, 50.265253], [4.90788, 50.264065], [4.908512, 50.263189], [4.909672, 50.262335], [4.910577, 50.262095], [4.911658, 50.261233], [4.91211, 50.260642], [4.912167, 50.260569], [4.912397, 50.259704], [4.91244, 50.259465]]}}, {"type": "Feature", "properties": {"day": "0929A", "label": "迪南 → 卢森堡市", "mode": "drive", "id": "dinant_luxembourg", "distance_km": 138.6, "duration_min": 96}, "geometry": {"type": "LineString", "coordinates": [[4.91244, 50.259465], [4.913185, 50.25739], [4.913579, 50.256298], [4.914956, 50.254988], [4.916084, 50.253535], [4.917127, 50.252094], [4.918796, 50.250305], [4.920697, 50.248241], [4.921165, 50.246325], [4.920931, 50.244664], [4.921296, 50.243505], [4.924109, 50.243251], [4.926819, 50.243763], [4.92908, 50.244927], [4.931863, 50.246622], [4.933857, 50.246098], [4.936466, 50.245298], [4.940025, 50.245536], [4.9432, 50.24569], [4.947143, 50.246205], [4.951174, 50.246306], [4.955466, 50.245414], [4.959412, 50.244557], [4.963046, 50.243914], [4.96604, 50.244108], [4.967439, 50.242309], [4.96835, 50.239626], [4.971889, 50.239895], [4.988193, 50.241787], [5.000647, 50.244293], [5.009474, 50.247987], [5.021342, 50.255611], [5.028313, 50.262273], [5.033542, 50.265855], [5.03677, 50.265354], [5.040678, 50.262324], [5.047157, 50.255713], [5.049441, 50.250877], [5.049741, 50.240726], [5.050821, 50.234614], [5.056022, 50.227171], [5.063212, 50.218137], [5.064932, 50.214374], [5.065657, 50.201932], [5.066636, 50.186479], [5.070677, 50.164957], [5.073163, 50.155691], [5.077863, 50.145318], [5.082179, 50.138463], [5.091892, 50.126981], [5.102235, 50.117857], [5.125633, 50.098802], [5.132458, 50.095239], [5.151563, 50.09193], [5.161117, 50.088824], [5.169526, 50.081961], [5.181551, 50.072628], [5.192421, 50.06542], [5.20246, 50.059679], [5.208259, 50.054214], [5.211629, 50.047641], [5.212068, 50.041171], [5.210301, 50.026045], [5.211447, 50.018843], [5.216656, 50.009747], [5.223585, 50.000704], [5.235508, 49.985496], [5.238547, 49.978544], [5.23885, 49.971222], [5.236793, 49.947501], [5.235286, 49.939742], [5.236449, 49.932586], [5.240296, 49.925945], [5.246355, 49.920274], [5.253745, 49.915977], [5.263056, 49.912714], [5.273454, 49.91097], [5.296575, 49.910394], [5.307418, 49.909002], [5.317127, 49.905898], [5.333934, 49.897751], [5.34915, 49.891557], [5.363172, 49.888084], [5.374747, 49.886535], [5.40431, 49.884952], [5.422843, 49.883918], [5.477124, 49.875344], [5.488541, 49.873224], [5.496426, 49.870384], [5.502678, 49.866501], [5.507383, 49.861541], [5.510193, 49.854865], [5.510562, 49.845842], [5.512672, 49.830272], [5.515833, 49.813287], [5.518259, 49.806255], [5.523557, 49.796902], [5.531368, 49.787485], [5.544415, 49.776127], [5.555325, 49.768175], [5.560068, 49.762835], [5.569742, 49.747296], [5.579878, 49.730985], [5.585613, 49.72475], [5.591858, 49.720165], [5.60827, 49.712623], [5.627584, 49.704831], [5.641347, 49.700944], [5.671346, 49.695821], [5.696411, 49.695569], [5.741531, 49.688784], [5.747861, 49.686677], [5.762284, 49.677767], [5.771146, 49.673381], [5.778142, 49.671563], [5.799332, 49.668247], [5.806881, 49.665719], [5.811974, 49.662284], [5.815641, 49.657235], [5.818236, 49.651937], [5.822548, 49.647291], [5.829558, 49.643338], [5.839713, 49.639921], [5.853196, 49.637913], [5.873277, 49.6392], [5.885822, 49.640172], [5.893964, 49.63975], [5.91063, 49.637911], [5.933013, 49.635827], [5.942767, 49.63623], [5.95274, 49.63565], [5.963236, 49.635846], [5.969889, 49.635888], [5.977458, 49.635017], [5.984412, 49.634473], [5.990951, 49.634979], [6.000137, 49.637294], [6.006626, 49.638545], [6.012551, 49.638772], [6.019283, 49.638016], [6.030687, 49.634301], [6.040571, 49.631435], [6.049542, 49.630368], [6.061314, 49.63045], [6.067956, 49.629741], [6.074957, 49.627694], [6.07982, 49.625021], [6.081755, 49.622538], [6.082051, 49.620009], [6.083163, 49.61865], [6.085888, 49.61826], [6.092852, 49.61726], [6.095561, 49.61687], [6.09858, 49.616259], [6.097713, 49.613983], [6.097573, 49.612194], [6.09741, 49.610024], [6.100257, 49.609924], [6.104643, 49.609511], [6.106143, 49.609784], [6.108642, 49.607955], [6.110326, 49.607526], [6.112622, 49.60787], [6.11576, 49.60714], [6.119624, 49.606477], [6.121707, 49.607359], [6.125105, 49.60904], [6.126527, 49.609527], [6.129497, 49.609616], [6.130371, 49.609402], [6.132221, 49.608472], [6.133214, 49.607275], [6.132762, 49.60885], [6.133097, 49.611247], [6.1331, 49.611618]]}}, {"type": "Feature", "properties": {"day": "0929A", "label": "卢森堡市 → 布鲁塞尔", "mode": "drive", "id": "luxembourg_brussels", "distance_km": 210.7, "duration_min": 145}, "geometry": {"type": "LineString", "coordinates": [[6.1331, 49.611618], [6.13131, 49.614088], [6.129885, 49.614509], [6.12626, 49.613443], [6.125831, 49.612305], [6.122591, 49.612548], [6.12082, 49.612952], [6.117379, 49.613652], [6.113034, 49.614318], [6.110021, 49.614771], [6.105389, 49.615454], [6.102171, 49.615919], [6.098129, 49.616501], [6.093376, 49.617184], [6.085745, 49.61828], [6.084311, 49.619835], [6.082877, 49.621975], [6.078258, 49.626196], [6.071144, 49.629092], [6.06283, 49.630475], [6.049027, 49.630489], [6.035654, 49.632712], [6.021099, 49.637723], [6.01112, 49.638886], [6.00265, 49.638018], [5.992528, 49.635351], [5.984408, 49.634564], [5.974776, 49.635489], [5.963259, 49.635939], [5.949715, 49.635992], [5.936043, 49.635987], [5.915027, 49.637514], [5.890914, 49.640151], [5.876023, 49.63958], [5.850754, 49.63818], [5.834443, 49.641696], [5.823786, 49.646669], [5.819171, 49.651066], [5.814774, 49.659376], [5.80868, 49.665], [5.799407, 49.668426], [5.77669, 49.672047], [5.768098, 49.674804], [5.748884, 49.686407], [5.74011, 49.689267], [5.690435, 49.695973], [5.664109, 49.69684], [5.627718, 49.704979], [5.601853, 49.715327], [5.588991, 49.722212], [5.581851, 49.728684], [5.569773, 49.747486], [5.558827, 49.764677], [5.548597, 49.773381], [5.531466, 49.787551], [5.520357, 49.802622], [5.516528, 49.811135], [5.512868, 49.830286], [5.510638, 49.851721], [5.507927, 49.860998], [5.501389, 49.86763], [5.492042, 49.872297], [5.480085, 49.874972], [5.419236, 49.884305], [5.377388, 49.886431], [5.361744, 49.88847], [5.344329, 49.893335], [5.317995, 49.905643], [5.305138, 49.909576], [5.277068, 49.910863], [5.26312, 49.91281], [5.250672, 49.917674], [5.242185, 49.924034], [5.23661, 49.932614], [5.235677, 49.942057], [5.239111, 49.972868], [5.237711, 49.981732], [5.231709, 49.990768], [5.215981, 50.011056], [5.21076, 50.021993], [5.21175, 50.037172], [5.211557, 50.04845], [5.205305, 50.057573], [5.192525, 50.065525], [5.172916, 50.079325], [5.161219, 50.088902], [5.139659, 50.093584], [5.128393, 50.097196], [5.09565, 50.123595], [5.08302, 50.137545], [5.0767, 50.14783], [5.071778, 50.16075], [5.06849, 50.177463], [5.066011, 50.195625], [5.064981, 50.214774], [5.060752, 50.221563], [5.050985, 50.234636], [5.049889, 50.243876], [5.048327, 50.254228], [5.04097, 50.26242], [5.026699, 50.276717], [5.017677, 50.287716], [5.015962, 50.296449], [5.019488, 50.308342], [5.021295, 50.31741], [5.015797, 50.3348], [5.001444, 50.364529], [4.986818, 50.381827], [4.976274, 50.395532], [4.96672, 50.406543], [4.952278, 50.414066], [4.943228, 50.421552], [4.937934, 50.43649], [4.929731, 50.447838], [4.920025, 50.460688], [4.903432, 50.485012], [4.89004, 50.498948], [4.885558, 50.505921], [4.881869, 50.518044], [4.878272, 50.529745], [4.872327, 50.537404], [4.853968, 50.549323], [4.830334, 50.564556], [4.804333, 50.588105], [4.786316, 50.603787], [4.742871, 50.636836], [4.724694, 50.645222], [4.690009, 50.653249], [4.64841, 50.662236], [4.636997, 50.667772], [4.629472, 50.676033], [4.620703, 50.692986], [4.611784, 50.704727], [4.600886, 50.711728], [4.576621, 50.721422], [4.559458, 50.730254], [4.540707, 50.746937], [4.529988, 50.753166], [4.516024, 50.758169], [4.505634, 50.765796], [4.499428, 50.777529], [4.492353, 50.787003], [4.480523, 50.793436], [4.474009, 50.797296], [4.461686, 50.802497], [4.443408, 50.810153], [4.435618, 50.813214], [4.429335, 50.812565], [4.423687, 50.812768], [4.417555, 50.814769], [4.408122, 50.815534], [4.4047, 50.818019], [4.403153, 50.818554], [4.403278, 50.820198], [4.401695, 50.821795], [4.399492, 50.823302], [4.396605, 50.825307], [4.393466, 50.824593], [4.390179, 50.822966], [4.387976, 50.821875], [4.385134, 50.820704], [4.381246, 50.81959], [4.379346, 50.818383], [4.377853, 50.816612], [4.376717, 50.815493], [4.375732, 50.816373], [4.371502, 50.818057], [4.370383, 50.820732], [4.366, 50.825285], [4.364723, 50.82665], [4.362473, 50.826604], [4.361685, 50.827371]]}}, {"type": "Feature", "properties": {"day": "0929B", "label": "迪南 → 那慕尔", "mode": "drive", "id": "dinant_namur", "distance_km": 28.1, "duration_min": 31}, "geometry": {"type": "LineString", "coordinates": [[4.91244, 50.259465], [4.913824, 50.258648], [4.913429, 50.259108], [4.912885, 50.260496], [4.912564, 50.2607], [4.912116, 50.260792], [4.911366, 50.261479], [4.910355, 50.262299], [4.909672, 50.262335], [4.908786, 50.262882], [4.908071, 50.263709], [4.907616, 50.264586], [4.907054, 50.265808], [4.906612, 50.26675], [4.906136, 50.267784], [4.905624, 50.268476], [4.904655, 50.269565], [4.902486, 50.272067], [4.899937, 50.274204], [4.89845, 50.275553], [4.897571, 50.277268], [4.89705, 50.279306], [4.89695, 50.280314], [4.896799, 50.281455], [4.896744, 50.282465], [4.896577, 50.286046], [4.896356, 50.287191], [4.896839, 50.288713], [4.896989, 50.290222], [4.896929, 50.2919], [4.896635, 50.29322], [4.897012, 50.294222], [4.898214, 50.295849], [4.899004, 50.297282], [4.8996, 50.299089], [4.899214, 50.300637], [4.897435, 50.302536], [4.896553, 50.303424], [4.89492, 50.304838], [4.891722, 50.306824], [4.888983, 50.308759], [4.886305, 50.310171], [4.883074, 50.311863], [4.879761, 50.314314], [4.878812, 50.315223], [4.878683, 50.315608], [4.878034, 50.31682], [4.877561, 50.319241], [4.877846, 50.320961], [4.878082, 50.322014], [4.877431, 50.323594], [4.876378, 50.324448], [4.875312, 50.325199], [4.873766, 50.326895], [4.873217, 50.328795], [4.87367, 50.330912], [4.873892, 50.33264], [4.873866, 50.33477], [4.873425, 50.336119], [4.872261, 50.337282], [4.870269, 50.338027], [4.868272, 50.338208], [4.867053, 50.338451], [4.863671, 50.339783], [4.861544, 50.341596], [4.860813, 50.343038], [4.860846, 50.344713], [4.861411, 50.346031], [4.862236, 50.346895], [4.86398, 50.347888], [4.866075, 50.348464], [4.866946, 50.348731], [4.868926, 50.349206], [4.870334, 50.349608], [4.872914, 50.350109], [4.875402, 50.35087], [4.877358, 50.351385], [4.878615, 50.35223], [4.879119, 50.352749], [4.880196, 50.352608], [4.880497, 50.354245], [4.880735, 50.355112], [4.879868, 50.356415], [4.879115, 50.356885], [4.878126, 50.357555], [4.876841, 50.358259], [4.875667, 50.35902], [4.875298, 50.359947], [4.87485, 50.360829], [4.875, 50.361561], [4.875891, 50.361677], [4.875653, 50.362183], [4.874522, 50.362779], [4.87165, 50.365392], [4.872013, 50.365996], [4.873495, 50.368389], [4.876272, 50.372997], [4.876397, 50.37395], [4.875803, 50.374664], [4.870432, 50.376635], [4.868929, 50.377287], [4.868674, 50.377623], [4.868194, 50.377919], [4.867137, 50.378994], [4.866556, 50.379952], [4.866436, 50.380891], [4.866653, 50.381699], [4.867439, 50.382956], [4.868208, 50.383371], [4.869252, 50.383517], [4.872906, 50.384068], [4.876392, 50.385093], [4.87751, 50.386277], [4.877746, 50.39021], [4.877843, 50.391775], [4.878672, 50.394171], [4.879787, 50.395961], [4.879511, 50.397084], [4.878573, 50.399096], [4.879832, 50.403299], [4.880101, 50.406107], [4.880257, 50.4082], [4.880605, 50.409852], [4.880697, 50.410899], [4.880561, 50.411867], [4.880465, 50.412584], [4.88044, 50.413869], [4.88054, 50.41463], [4.879568, 50.415974], [4.879014, 50.416581], [4.878551, 50.417608], [4.87753, 50.420278], [4.87606, 50.422005], [4.87277, 50.42416], [4.870405, 50.425697], [4.869254, 50.426653], [4.866998, 50.428325], [4.866378, 50.428989], [4.865799, 50.429639], [4.864095, 50.431825], [4.862624, 50.434786], [4.860854, 50.43771], [4.858959, 50.440033], [4.857344, 50.442015], [4.85626, 50.4444], [4.856088, 50.447427], [4.857205, 50.45096], [4.858718, 50.452379], [4.860858, 50.453136], [4.862221, 50.455481], [4.862282, 50.456593], [4.862852, 50.45762], [4.863347, 50.45824], [4.863765, 50.458838], [4.863687, 50.458898], [4.86352, 50.45878], [4.862385, 50.457618], [4.862311, 50.457472], [4.862204, 50.457432], [4.86215, 50.457533], [4.86265, 50.458243], [4.862976, 50.458658], [4.863596, 50.459167], [4.864284, 50.459543], [4.864577, 50.459699], [4.864878, 50.45991], [4.864974, 50.460029], [4.864829, 50.460062], [4.864652, 50.459967], [4.864451, 50.459983], [4.864318, 50.460116], [4.864164, 50.460357], [4.864157, 50.460525], [4.864269, 50.460642], [4.86449, 50.460687], [4.863417, 50.46076], [4.861653, 50.460724]]}}, {"type": "Feature", "properties": {"day": "0929B", "label": "那慕尔 → 原子球塔", "mode": "drive", "id": "namur_atomium", "distance_km": 79.3, "duration_min": 61}, "geometry": {"type": "LineString", "coordinates": [[4.861653, 50.460724], [4.863509, 50.460748], [4.864414, 50.460681], [4.864192, 50.460588], [4.864155, 50.460386], [4.864295, 50.460153], [4.864451, 50.459983], [4.864677, 50.459976], [4.864885, 50.460071], [4.864965, 50.459975], [4.864646, 50.459761], [4.864333, 50.459555], [4.863596, 50.459167], [4.862931, 50.458615], [4.862354, 50.457826], [4.862145, 50.457465], [4.862289, 50.457447], [4.862343, 50.457562], [4.86352, 50.45878], [4.86371, 50.458896], [4.863735, 50.458787], [4.863182, 50.457975], [4.862321, 50.456737], [4.862221, 50.455481], [4.864706, 50.458443], [4.866126, 50.459337], [4.86871, 50.460771], [4.868497, 50.461018], [4.868115, 50.461301], [4.868527, 50.461581], [4.869553, 50.461698], [4.86977, 50.462315], [4.870428, 50.462325], [4.871212, 50.462373], [4.872269, 50.462616], [4.874268, 50.463366], [4.876394, 50.464508], [4.877939, 50.465268], [4.878065, 50.46602], [4.881339, 50.466308], [4.884727, 50.466527], [4.885281, 50.466511], [4.888797, 50.466811], [4.893555, 50.467484], [4.895892, 50.468176], [4.898445, 50.469707], [4.902212, 50.472328], [4.903336, 50.473125], [4.903786, 50.473264], [4.905207, 50.474339], [4.907771, 50.47601], [4.908261, 50.476204], [4.910424, 50.477814], [4.910948, 50.478124], [4.910382, 50.478253], [4.909276, 50.478104], [4.907854, 50.478918], [4.901083, 50.487781], [4.891352, 50.497475], [4.88783, 50.501865], [4.885558, 50.505921], [4.883605, 50.51142], [4.881718, 50.518612], [4.879069, 50.527916], [4.876731, 50.532418], [4.873023, 50.536753], [4.867799, 50.540853], [4.852756, 50.550053], [4.836632, 50.560104], [4.822776, 50.570461], [4.808355, 50.583979], [4.79729, 50.594777], [4.786316, 50.603787], [4.751583, 50.630881], [4.739043, 50.639015], [4.729044, 50.643626], [4.716232, 50.647757], [4.696348, 50.651967], [4.654768, 50.660467], [4.647033, 50.662704], [4.640064, 50.665794], [4.634581, 50.669735], [4.630403, 50.674589], [4.627387, 50.67977], [4.620703, 50.692986], [4.616114, 50.699717], [4.610448, 50.705976], [4.603585, 50.710343], [4.593994, 50.714583], [4.578925, 50.720508], [4.565327, 50.726292], [4.558794, 50.73081], [4.548034, 50.740426], [4.538028, 50.749024], [4.53152, 50.752547], [4.523235, 50.755476], [4.516024, 50.758169], [4.509204, 50.762327], [4.504579, 50.767168], [4.502091, 50.771803], [4.497434, 50.781444], [4.493067, 50.786415], [4.487872, 50.789984], [4.479834, 50.793769], [4.476238, 50.79609], [4.47146, 50.798385], [4.466345, 50.800667], [4.465431, 50.801403], [4.467372, 50.804449], [4.472995, 50.813492], [4.478684, 50.82261], [4.47926, 50.826338], [4.483437, 50.833019], [4.483954, 50.83651], [4.483042, 50.843968], [4.479169, 50.849374], [4.476909, 50.852481], [4.475795, 50.855016], [4.475384, 50.857996], [4.474806, 50.860429], [4.471928, 50.864896], [4.466706, 50.872515], [4.462153, 50.879087], [4.460646, 50.88196], [4.458489, 50.887011], [4.453911, 50.891948], [4.450558, 50.894496], [4.444485, 50.897302], [4.437196, 50.90062], [4.433678, 50.902841], [4.430901, 50.906129], [4.429074, 50.909421], [4.426492, 50.911365], [4.421394, 50.913435], [4.417456, 50.914172], [4.413857, 50.913961], [4.405142, 50.912117], [4.399929, 50.91173], [4.395551, 50.911932], [4.38888, 50.91311], [4.374445, 50.916467], [4.367822, 50.91755], [4.363238, 50.917906], [4.358868, 50.917846], [4.354346, 50.917325], [4.350006, 50.916811], [4.345142, 50.915898], [4.339977, 50.913966], [4.336588, 50.910758], [4.336239, 50.909637], [4.33782, 50.909196], [4.340916, 50.910682], [4.342082, 50.91077], [4.342891, 50.910162], [4.344278, 50.906645], [4.34469, 50.904902], [4.344685, 50.904318], [4.345113, 50.902862], [4.345033, 50.902135], [4.345145, 50.901812], [4.345669, 50.901186], [4.342894, 50.900152], [4.341521, 50.899613], [4.340808, 50.899166], [4.339982, 50.898359], [4.339288, 50.897611], [4.340032, 50.896353], [4.341075, 50.895195], [4.34106, 50.8949], [4.341272, 50.894663], [4.341524, 50.894624]]}}, {"type": "Feature", "properties": {"day": "0929B", "label": "原子球塔 → 布鲁塞尔民宿", "mode": "drive", "id": "atomium_brussels", "distance_km": 10.3, "duration_min": 19}, "geometry": {"type": "LineString", "coordinates": [[4.341524, 50.894624], [4.341604, 50.8946], [4.342004, 50.894176], [4.342871, 50.893218], [4.342912, 50.893146], [4.342894, 50.893061], [4.342865, 50.892973], [4.342884, 50.892881], [4.342953, 50.892796], [4.343064, 50.892732], [4.343203, 50.892694], [4.343345, 50.892659], [4.343418, 50.892602], [4.344379, 50.891521], [4.344766, 50.891087], [4.345091, 50.890732], [4.345138, 50.890662], [4.345152, 50.890626], [4.345159, 50.890587], [4.345159, 50.890554], [4.345136, 50.890443], [4.345101, 50.890331], [4.345053, 50.890191], [4.344968, 50.889936], [4.344958, 50.889864], [4.344937, 50.889795], [4.34483, 50.889491], [4.344731, 50.889184], [4.344584, 50.888565], [4.344556, 50.88845], [4.344531, 50.888343], [4.344349, 50.887536], [4.344301, 50.887371], [4.344281, 50.88731], [4.344257, 50.887217], [4.344242, 50.887022], [4.344214, 50.886752], [4.344106, 50.885845], [4.344199, 50.88527], [4.344227, 50.885136], [4.344268, 50.884946], [4.34436, 50.884505], [4.344349, 50.884442], [4.344258, 50.884356], [4.344327, 50.884159], [4.344793, 50.8838], [4.34497, 50.883673], [4.346651, 50.882327], [4.346761, 50.88224], [4.347004, 50.882057], [4.347191, 50.881903], [4.347259, 50.881839], [4.347333, 50.88176], [4.347398, 50.881677], [4.34745, 50.881583], [4.347665, 50.881438], [4.348054, 50.881242], [4.34813, 50.881225], [4.348186, 50.881213], [4.348916, 50.880829], [4.349321, 50.88059], [4.34952, 50.880464], [4.349608, 50.880418], [4.349707, 50.880397], [4.34988, 50.880414], [4.350621, 50.880569], [4.351015, 50.880646], [4.351563, 50.880793], [4.351981, 50.880878], [4.353392, 50.881166], [4.353546, 50.881188], [4.353609, 50.881189], [4.353678, 50.88118], [4.35421, 50.881036], [4.3545, 50.880924], [4.354612, 50.880866], [4.354904, 50.880735], [4.355003, 50.880712], [4.355177, 50.880726], [4.355322, 50.880467], [4.355483, 50.88021], [4.355786, 50.879796], [4.356067, 50.879405], [4.356374, 50.878975], [4.356399, 50.878937], [4.356441, 50.878872], [4.356488, 50.878771], [4.356502, 50.878718], [4.356501, 50.878638], [4.356478, 50.878545], [4.356441, 50.878476], [4.356394, 50.878413], [4.356321, 50.878338], [4.35622, 50.878273], [4.356181, 50.87824], [4.356148, 50.878188], [4.356155, 50.87814], [4.356254, 50.878002], [4.356315, 50.877916], [4.357425, 50.87636], [4.359066, 50.873895], [4.359228, 50.873633], [4.359307, 50.873502], [4.359402, 50.873346], [4.359463, 50.873278], [4.359674, 50.87303], [4.360155, 50.872399], [4.360232, 50.872196], [4.36026, 50.872048], [4.360262, 50.871987], [4.36016, 50.871509], [4.359954, 50.87124], [4.359084, 50.870152], [4.358207, 50.869067], [4.357154, 50.867764], [4.356807, 50.867326], [4.355695, 50.865942], [4.355017, 50.865095], [4.35475, 50.864827], [4.354197, 50.864495], [4.353978, 50.864369], [4.353755, 50.864261], [4.353567, 50.864161], [4.353231, 50.863921], [4.352677, 50.863289], [4.352247, 50.862758], [4.35191, 50.86231], [4.351869, 50.862257], [4.351589, 50.861923], [4.35148, 50.86181], [4.350381, 50.860454], [4.349656, 50.859559], [4.349193, 50.858919], [4.349057, 50.858686], [4.348831, 50.858296], [4.348792, 50.858235], [4.348707, 50.858113], [4.3486, 50.85796], [4.348939, 50.857848], [4.349276, 50.857748], [4.350155, 50.857499], [4.350729, 50.857418], [4.351559, 50.857178], [4.352759, 50.856829], [4.354885, 50.856213], [4.358511, 50.855302], [4.361245, 50.854567], [4.363596, 50.853912], [4.367466, 50.852707], [4.367625, 50.852628], [4.367781, 50.852524], [4.367871, 50.852449], [4.368, 50.852311], [4.368079, 50.852192], [4.368252, 50.851662], [4.368459, 50.850833], [4.368607, 50.850328], [4.369065, 50.848827], [4.369338, 50.84778], [4.369359, 50.847559], [4.369257, 50.847236], [4.369048, 50.846742], [4.368369, 50.845434], [4.367092, 50.842999], [4.366048, 50.841105], [4.365411, 50.840522], [4.364221, 50.83981], [4.363231, 50.839283], [4.361662, 50.838542], [4.360275, 50.837958], [4.359477, 50.837629], [4.354796, 50.83568], [4.354377, 50.835561], [4.354064, 50.835544], [4.353777, 50.835606], [4.353596, 50.83572], [4.353506, 50.83588], [4.353544, 50.83604], [4.353674, 50.836159], [4.353814, 50.836231], [4.353956, 50.836259], [4.354151, 50.836263], [4.354344, 50.836236], [4.354566, 50.83615], [4.358002, 50.832928], [4.360035, 50.830947], [4.360277, 50.830529], [4.360826, 50.829904], [4.3597, 50.829447], [4.359655, 50.82934], [4.360508, 50.828513], [4.360618, 50.828405], [4.36073, 50.828295], [4.360991, 50.828038], [4.361358, 50.82769], [4.361685, 50.827371]]}}, {"type": "Feature", "properties": {"day": "0930", "label": "布鲁塞尔 → 香蒂伊", "mode": "drive", "id": "brussels_chantilly", "distance_km": 267.9, "duration_min": 187}, "geometry": {"type": "LineString", "coordinates": [[4.361685, 50.827371], [4.363175, 50.822399], [4.358742, 50.819711], [4.354349, 50.814193], [4.350912, 50.811196], [4.343356, 50.806576], [4.340394, 50.801976], [4.33647, 50.800311], [4.33082, 50.79723], [4.323851, 50.796361], [4.318137, 50.795773], [4.313572, 50.794482], [4.302974, 50.79221], [4.298799, 50.775545], [4.28138, 50.74783], [4.270196, 50.729073], [4.267206, 50.710233], [4.282562, 50.698146], [4.308332, 50.67886], [4.307853, 50.642816], [4.297042, 50.611017], [4.300596, 50.592996], [4.305544, 50.582085], [4.297047, 50.566976], [4.265813, 50.550614], [4.225296, 50.538436], [4.187968, 50.517678], [4.150273, 50.500451], [4.058307, 50.480828], [3.991854, 50.492277], [3.961215, 50.484205], [3.938494, 50.47785], [3.923264, 50.459167], [3.840598, 50.452914], [3.728837, 50.450861], [3.687124, 50.44496], [3.667325, 50.438888], [3.65655, 50.434149], [3.643863, 50.427404], [3.636609, 50.422569], [3.630835, 50.417959], [3.626711, 50.41405], [3.624277, 50.411412], [3.621897, 50.408497], [3.618609, 50.403717], [3.616527, 50.399966], [3.614249, 50.394632], [3.611478, 50.385874], [3.609761, 50.381489], [3.607124, 50.377079], [3.604062, 50.373403], [3.598989, 50.368845], [3.587673, 50.360102], [3.580354, 50.353683], [3.570076, 50.343786], [3.563836, 50.339393], [3.559361, 50.337441], [3.554917, 50.336345], [3.550125, 50.336032], [3.545408, 50.3366], [3.54024, 50.338246], [3.535654, 50.339186], [3.530847, 50.339096], [3.520965, 50.337708], [3.515089, 50.337294], [3.51044, 50.337481], [3.491941, 50.340461], [3.485405, 50.341222], [3.477153, 50.341045], [3.466758, 50.340115], [3.460153, 50.33912], [3.455422, 50.337847], [3.450422, 50.3359], [3.4465, 50.333963], [3.43726, 50.328463], [3.423207, 50.320422], [3.416935, 50.317855], [3.401342, 50.313662], [3.38993, 50.310142], [3.377916, 50.305378], [3.372367, 50.302249], [3.36824, 50.299027], [3.360656, 50.292036], [3.35288, 50.286226], [3.342165, 50.279284], [3.338897, 50.276627], [3.335845, 50.273186], [3.331203, 50.264713], [3.329187, 50.261656], [3.322974, 50.254969], [3.31666, 50.250265], [3.309424, 50.246297], [3.2959, 50.240427], [3.282608, 50.233664], [3.269425, 50.228566], [3.253361, 50.222609], [3.24453, 50.218691], [3.237936, 50.214999], [3.231177, 50.210462], [3.224456, 50.205723], [3.216331, 50.20096], [3.206141, 50.19579], [3.199301, 50.191709], [3.193313, 50.186969], [3.18776, 50.180861], [3.183001, 50.17501], [3.177738, 50.168932], [3.172085, 50.164135], [3.165264, 50.159866], [3.158024, 50.156505], [3.149795, 50.153705], [3.140919, 50.150956], [3.122499, 50.141302], [3.088614, 50.12255], [3.028915, 50.080869], [3.002181, 50.072111], [2.952601, 50.057489], [2.903756, 50.035252], [2.878881, 50.013128], [2.87332, 49.991681], [2.855114, 49.95965], [2.851942, 49.935609], [2.846022, 49.898369], [2.837382, 49.881915], [2.828462, 49.833128], [2.813553, 49.804887], [2.801137, 49.784116], [2.790461, 49.751116], [2.775015, 49.716524], [2.771685, 49.696887], [2.765218, 49.658789], [2.754425, 49.604748], [2.740561, 49.571431], [2.724625, 49.534088], [2.719636, 49.514993], [2.712014, 49.478416], [2.700605, 49.455085], [2.695321, 49.429667], [2.69503, 49.403031], [2.703919, 49.375248], [2.700893, 49.35095], [2.688606, 49.323725], [2.684972, 49.305368], [2.695625, 49.279807], [2.684087, 49.256194], [2.661411, 49.23755], [2.638654, 49.221359], [2.622014, 49.212869], [2.6166, 49.21019], [2.607926, 49.20928], [2.596646, 49.208054], [2.592286, 49.207602], [2.589396, 49.206648], [2.585766, 49.208741], [2.578561, 49.206525], [2.575882, 49.206177], [2.570893, 49.204709], [2.563353, 49.203652], [2.551695, 49.203719], [2.541463, 49.201253], [2.531726, 49.199874], [2.511697, 49.198267], [2.508467, 49.195386], [2.50488, 49.187346], [2.484603, 49.189861], [2.485251, 49.191509], [2.485662, 49.193923]]}}, {"type": "Feature", "properties": {"day": "0930", "label": "香蒂伊 → 巴黎北站", "mode": "drive", "id": "chantilly_nord", "distance_km": 46.3, "duration_min": 49}, "geometry": {"type": "LineString", "coordinates": [[2.485662, 49.193923], [2.48604, 49.19378], [2.485931, 49.192547], [2.485381, 49.191619], [2.485196, 49.191362], [2.484518, 49.190136], [2.48437, 49.190143], [2.484243, 49.190095], [2.484179, 49.190015], [2.484188, 49.189925], [2.484267, 49.189852], [2.484437, 49.189815], [2.484764, 49.189659], [2.48623, 49.188253], [2.488271, 49.186285], [2.491366, 49.183313], [2.49676, 49.178135], [2.506962, 49.16832], [2.508498, 49.16667], [2.508529, 49.166432], [2.50901, 49.166382], [2.519328, 49.156463], [2.52105, 49.154805], [2.521709, 49.154063], [2.523152, 49.153809], [2.52347, 49.153189], [2.524087, 49.151425], [2.525901, 49.147577], [2.529617, 49.139336], [2.5319, 49.134261], [2.532906, 49.132022], [2.533341, 49.131099], [2.533721, 49.130247], [2.533713, 49.130164], [2.533819, 49.129964], [2.533767, 49.129043], [2.533705, 49.128119], [2.53364, 49.127274], [2.533537, 49.125972], [2.533498, 49.125477], [2.53341, 49.12439], [2.533327, 49.123557], [2.533162, 49.121811], [2.532972, 49.119537], [2.53149, 49.102003], [2.531213, 49.099741], [2.53096, 49.099522], [2.531041, 49.099277], [2.531084, 49.098113], [2.53116, 49.097253], [2.531088, 49.097092], [2.530877, 49.095823], [2.530563, 49.092225], [2.530347, 49.091281], [2.529955, 49.091131], [2.529646, 49.091199], [2.529558, 49.091454], [2.529823, 49.091641], [2.530911, 49.091583], [2.531545, 49.091563], [2.534659, 49.091444], [2.535584, 49.09124], [2.535866, 49.091102], [2.536658, 49.091034], [2.537438, 49.09071], [2.538334, 49.090134], [2.539339, 49.089124], [2.541246, 49.087098], [2.541856, 49.086528], [2.542787, 49.086008], [2.544285, 49.085431], [2.545294, 49.085249], [2.546088, 49.085227], [2.547208, 49.085366], [2.549318, 49.085921], [2.549905, 49.085997], [2.550373, 49.085455], [2.550864, 49.084263], [2.551367, 49.080462], [2.552312, 49.06961], [2.552484, 49.066118], [2.551839, 49.062104], [2.551297, 49.060652], [2.548669, 49.055199], [2.547826, 49.052013], [2.546798, 49.048239], [2.545512, 49.045611], [2.544091, 49.043401], [2.542462, 49.039926], [2.540766, 49.035335], [2.539892, 49.0329], [2.537762, 49.028382], [2.535111, 49.023158], [2.532608, 49.018238], [2.531672, 49.016385], [2.527961, 49.009062], [2.527083, 49.007329], [2.525665, 49.00488], [2.522102, 49.000589], [2.514727, 48.993836], [2.508793, 48.988445], [2.506389, 48.986305], [2.502144, 48.983336], [2.496701, 48.979743], [2.483415, 48.970941], [2.477546, 48.967049], [2.468552, 48.961124], [2.46274, 48.957853], [2.457288, 48.954937], [2.448417, 48.950153], [2.439458, 48.945331], [2.434916, 48.943335], [2.431046, 48.942158], [2.426894, 48.941183], [2.418621, 48.939271], [2.41335, 48.938056], [2.40237, 48.935488], [2.399514, 48.934904], [2.395934, 48.934421], [2.391951, 48.934199], [2.385602, 48.934013], [2.382096, 48.933901], [2.378987, 48.933605], [2.376065, 48.933152], [2.373212, 48.932512], [2.36709, 48.930884], [2.363011, 48.929777], [2.360065, 48.929108], [2.359132, 48.928866], [2.358416, 48.928575], [2.357774, 48.928172], [2.357287, 48.927698], [2.356942, 48.927144], [2.356786, 48.926578], [2.356813, 48.925662], [2.357302, 48.919523], [2.35857, 48.903237], [2.358759, 48.901098], [2.359037, 48.899927], [2.359079, 48.899166], [2.359011, 48.898695], [2.358049, 48.898685], [2.357404, 48.898614], [2.355531, 48.898511], [2.352766, 48.898449], [2.351248, 48.898421], [2.35051, 48.898377], [2.348636, 48.898286], [2.34688, 48.898237], [2.345987, 48.898186], [2.345725, 48.898199], [2.344277, 48.89807], [2.344527, 48.897767], [2.34502, 48.897156], [2.346363, 48.895578], [2.346978, 48.894832], [2.347372, 48.894347], [2.348056, 48.893531], [2.349044, 48.892362], [2.34956, 48.891741], [2.349601, 48.891238], [2.349593, 48.88983], [2.349585, 48.888356], [2.34958, 48.887558], [2.349544, 48.886684], [2.349527, 48.885709], [2.349524, 48.88552], [2.349496, 48.884489], [2.349484, 48.88413], [2.349484, 48.883791], [2.349722, 48.883623], [2.351428, 48.883751], [2.355306, 48.884043], [2.354981, 48.88301], [2.354092, 48.881157]]}}, {"type": "Feature", "properties": {"id": "schiphol_zuid", "day": "0925", "label": "史基浦 → Amsterdam Zuid", "mode": "rail", "coordinates": [[4.7683, 52.3105], [4.8, 52.318], [4.84, 52.328], [4.873, 52.339]]}, "geometry": {"type": "LineString", "coordinates": [[4.7683, 52.3105], [4.8, 52.318], [4.84, 52.328], [4.873, 52.339]]}}, {"type": "Feature", "properties": {"id": "centraal_zaandijk", "day": "0927", "label": "阿姆斯特丹中央车站 → Zaandijk", "mode": "rail", "coordinates": [[4.9003, 52.3789], [4.838, 52.389], [4.813, 52.439], [4.8065, 52.4692]]}, "geometry": {"type": "LineString", "coordinates": [[4.9003, 52.3789], [4.838, 52.389], [4.813, 52.439], [4.8065, 52.4692]]}}, {"type": "Feature", "properties": {"id": "zaanse_volendam", "day": "0927", "label": "风车村 → 沃伦丹（EBS 801）", "mode": "rail", "coordinates": [[4.8165, 52.4737], [4.88, 52.49], [4.96, 52.505], [5.049, 52.512], [5.0746, 52.4954]]}, "geometry": {"type": "LineString", "coordinates": [[4.8165, 52.4737], [4.85, 52.482], [4.919, 52.505], [4.96, 52.505], [5.01, 52.515], [5.049, 52.512], [5.0746, 52.4954]]}}, {"type": "Feature", "properties": {"id": "volendam_marken", "day": "0927", "label": "沃伦丹 → 马肯渡轮", "mode": "ferry", "coordinates": [[5.0746, 52.4954], [5.09, 52.478], [5.1022, 52.4586]]}, "geometry": {"type": "LineString", "coordinates": [[5.0746, 52.4954], [5.088, 52.485], [5.1, 52.472], [5.1022, 52.4586]]}}, {"type": "Feature", "properties": {"id": "marken_centraal", "day": "0927", "label": "马肯 → 中央车站（EBS 315）", "mode": "rail", "coordinates": [[5.1022, 52.4586], [5.037, 52.436], [4.955, 52.41], [4.9003, 52.3789]]}, "geometry": {"type": "LineString", "coordinates": [[5.1022, 52.4586], [5.037, 52.436], [4.995, 52.422], [4.955, 52.41], [4.92, 52.392], [4.9003, 52.3789]]}}, {"type": "Feature", "properties": {"id": "paris_reims", "day": "1002", "label": "巴黎东站 → 兰斯", "mode": "rail", "coordinates": [[2.3593, 48.8766], [2.8, 48.97], [3.4, 49.1], [3.8, 49.2], [4.0242, 49.2588]]}, "geometry": {"type": "LineString", "coordinates": [[2.3593, 48.8766], [2.55, 48.92], [2.9, 49.0], [3.3, 49.12], [3.7, 49.2], [4.0242, 49.2588]]}}, {"type": "Feature", "properties": {"id": "javel_versailles", "day": "1003", "label": "Javel → 凡尔赛", "mode": "rail", "coordinates": [[2.277, 48.8465], [2.22, 48.838], [2.17, 48.82], [2.1336, 48.8001]]}, "geometry": {"type": "LineString", "coordinates": [[2.277, 48.8465], [2.22, 48.838], [2.17, 48.82], [2.1336, 48.8001]]}}, {"type": "Feature", "properties": {"id": "eurostar", "day": "1004", "label": "巴黎北站 → 伦敦圣潘克拉斯", "mode": "rail", "coordinates": [[2.3553, 48.8809], [2.8, 49.2], [3.071, 50.636], [1.811, 50.901], [1.5, 50.96], [1.119, 51.097], [0.875, 51.146], [0.321, 51.443], [-0.1261, 51.5314]]}, "geometry": {"type": "LineString", "coordinates": [[2.3553, 48.8809], [2.47, 49.12], [2.78, 50.29], [3.075, 50.639], [2.4, 50.82], [1.811, 50.905], [1.45, 51.02], [1.16, 51.1], [0.875, 51.146], [0.321, 51.443], [-0.1261, 51.5314]]}}, {"type": "Feature", "properties": {"id": "russell_lhr", "day": "1006", "label": "Russell Square → 希思罗 T4", "mode": "rail", "coordinates": [[-0.1244, 51.5231], [-0.134, 51.51], [-0.194, 51.492], [-0.268, 51.473], [-0.4, 51.47], [-0.447, 51.4597]]}, "geometry": {"type": "LineString", "coordinates": [[-0.1244, 51.5231], [-0.134, 51.51], [-0.194, 51.492], [-0.268, 51.473], [-0.4, 51.47], [-0.447, 51.4597]]}}]}